LEMUR-2-PETERG          
1 42841U 17042S   26068.48235713  .00023240  00000+0  81076-3 0  9993
2 42841  97.3980 253.6596 0003700 341.6938  18.4169 15.29611459473171
STARLINK-31634          
1 59330U 24057L   26068.34399953 -.00000424  00000+0 -58955-5 0  9993
2 59330  43.0040 189.2481 0001630 278.7256  81.3411 15.27574143109785
